[{"OBJECT_NAME":"STARLINK-4359","OBJECT_ID":"2022-084AP","EPOCH":"2026-03-09T17:22:04.534176","MEAN_MOTION":15.01269126,"ECCENTRICITY":0.0001273,"INCLINATION":97.605,"RA_OF_ASC_NODE":130.2516,"ARG_OF_PERICENTER":174.5662,"MEAN_ANOMALY":185.5577,"EPHEMERIS_TYPE":0,"CLASSIFICATION_TYPE":"U","NORAD_CAT_ID":53226,"ELEMENT_SET_NO":999,"REV_AT_EPOCH":19932,"BSTAR":-5.2865119e-5,"MEAN_MOTION_DOT":-7.37e-6,"MEAN_MOTION_DDOT":0},{"OBJECT_NAME":"CZ-6A DEB","OBJECT_ID":"2024-140AV","EPOCH":"2026-03-09T16:02:49.073856","MEAN_MOTION":14.88911619,"ECCENTRICITY":0.00760382,"INCLINATION":89.0057,"RA_OF_ASC_NODE":281.1228,"ARG_OF_PERICENTER":170.8875,"MEAN_ANOMALY":189.3755,"EPHEMERIS_TYPE":0,"CLASSIFICATION_TYPE":"U","NORAD_CAT_ID":60644,"ELEMENT_SET_NO":999,"REV_AT_EPOCH":8516,"BSTAR":0.002692912,"MEAN_MOTION_DOT":0.00026759,"MEAN_MOTION_DDOT":0}]
